{"spkid": "50381471", "covariance": {"epoch": "2455357.5", "data": [["8.050395421034751E-15", "-1.001829115598618E-14", "-8.044181418462112E-13", "3.449918198159781E-13", "-3.393627178159054E-13", "5.485651527405131E-14"], ["-1.001829115598618E-14", "1.247553315616965E-14", "9.669745463281962E-13", "-4.393376949500895E-13", "4.032258465270272E-13", "-1.364717212371664E-13"], ["-8.044181418462112E-13", "9.669745463281962E-13", "5.024336311625273E-10", "-4.683280733946763E-11", "3.54367272540432E-10", "3.918304284297568E-10"], ["3.449918198159781E-13", "-4.393376949500895E-13", "-4.683280733946763E-11", "1.973256123094022E-10", "-1.670052169037319E-10", "1.725241019241585E-10"], ["-3.393627178159054E-13", "4.032258465270272E-13", "3.54367272540432E-10", "-1.670052169037319E-10", "4.037944472275892E-10", "1.352914259471227E-10"], ["5.485651527405131E-14", "-1.364717212371664E-13", "3.918304284297568E-10", "1.725241019241585E-10", "1.352914259471227E-10", "2.391022643740587E-9"]], "elements": [{"sigma": 8.97239957928466e-08, "name": "e", "units": null, "title": "eccentricity", "value": ".3708779863658265", "label": "e"}, {"label": "q", "sigma": 1.11693926227748e-07, "name": "q", "title": "perihelion distance", "value": ".8011901841434873", "units": "au"}, {"label": "tp", "sigma": 2.24150313665301e-05, "name": "tp", "value": "2455478.027039031851", "title": "time of perihelion passage", "units": "TDB"}, {"label": "node", "units": "deg", "value": "324.5079917193852", "title": "longitude of the ascending node", "sigma": 1.40472635167638e-05, "name": "om"}, {"label": "peri", "sigma": 2.00946372753426e-05, "name": "w", "title": "argument of perihelion", "value": "107.6046849449547", "units": "deg"}, {"name": "i", "sigma": 4.88980842542996e-05, "units": "deg", "title": "inclination", "value": "24.59939241870877", "label": "i"}], "labels": ["e", "q", "tp", "node", "peri", "i"]}, "elements": [{"name": "e", "sigma": "8.9831E-8", "units": null, "title": "eccentricity", "value": ".370753075378057", "label": "e"}, {"label": "a", "units": "au", "title": "semi-major axis", "value": "1.273221512860067", "sigma": "5.693E-9", "name": "a"}, {"title": "perihelion distance", "value": ".8011707213296951", "units": "au", "name": "q", "sigma": "1.1177E-7", "label": "q"}, {"label": "i", "sigma": "4.8903E-5", "name": "i", "title": "inclination; angle with respect to x-y ecliptic plane", "value": "24.60374839005604", "units": "deg"}, {"units": "deg", "title": "longitude of the ascending node", "value": "324.4237365200564", "name": "om", "sigma": "1.4061E-5", "label": "node"}, {"label": "peri", "sigma": "2.0052E-5", "name": "w", "units": "deg", "value": "107.6756734436382", "title": "argument of perihelion"}, {"label": "M", "title": "mean anomaly", "value": "325.0963042764491", "units": "deg", "sigma": "2.0784E-5", "name": "ma"}, {"label": "tp", "sigma": "3.058E-5", "name": "tp", "units": "TDB", "value": "2461251.377210543508", "title": "time of perihelion passage"}, {"label": "period", "units": "d", "value": "524.7523339857773", "title": "sidereal orbital period", "name": "per", "sigma": "3.5195E-6"}, {"sigma": "4.6012E-9", "name": "n", "units": "deg/d", "title": "mean motion", "value": ".6860379205283483", "label": "n"}, {"label": "Q", "units": "au", "value": "1.74527230439044", "title": "aphelion distance", "name": "ad", "sigma": "7.8037E-9"}], "epoch": "2461200.5"}